{
  "type": "FeatureCollection",
  "features": [
    {
      "type": "Feature",
      "properties": {
        "norad_id": 33376,
        "name": "GALAXY 19 (G-19)",
        "group": "intelsat",
        "lat": 0.0033612063702346865,
        "lon": -45.28109103438473,
        "alt_km": 35778.72728504202,
        "timestamp": "2025-12-17T21:39:45.376248+00:00",
        "meta_object_name": "GALAXY 19 (G-19)",
        "meta_object_id": "2008-045A",
        "meta_epoch": "2025-12-17T12:00:00.903744",
        "meta_mean_motion": 1.00271051,
        "meta_eccentricity": 0.00025154,
        "meta_inclination": 0.022,
        "meta_ra_of_asc_node": 283.0681,
        "meta_arg_of_pericenter": 347.0126,
        "meta_mean_anomaly": 259.2988,
        "meta_ephemeris_type": 0,
        "meta_classification_type": "U",
        "meta_norad_cat_id": 33376,
        "meta_element_set_no": 999,
        "meta_rev_at_epoch": 6308,
        "meta_bstar": 0,
        "meta_mean_motion_dot": -1.14e-06,
        "meta_mean_motion_ddot": 0,
        "tle_line1": "1 33376U 08045A   25351.50001046 -.00000114  00000+0  00000+0 0  9996",
        "tle_line2": "2 33376   0.0220 283.0681 0002515 347.0126 259.2988  1.00271051 63089"
      },
      "geometry": {
        "type": "Point",
        "coordinates": [
          -45.28109103438473,
          0.0033612063702346865
        ]
      }
    },
    {
      "type": "Feature",
      "properties": {
        "norad_id": 35493,
        "name": "FM-5",
        "group": "intelsat",
        "lat": 0.006697950940653568,
        "lon": -34.44448712838437,
        "alt_km": 35789.90773271743,
        "timestamp": "2025-12-17T21:39:45.376259+00:00",
        "meta_object_name": "FM-5",
        "meta_object_id": "2009-034A",
        "meta_epoch": "2025-12-17T12:55:02.392896",
        "meta_mean_motion": 1.00270579,
        "meta_eccentricity": 8.258e-05,
        "meta_inclination": 0.019,
        "meta_ra_of_asc_node": 293.2593,
        "meta_arg_of_pericenter": 214.9962,
        "meta_mean_anomaly": 45.775,
        "meta_ephemeris_type": 0,
        "meta_classification_type": "U",
        "meta_norad_cat_id": 35493,
        "meta_element_set_no": 999,
        "meta_rev_at_epoch": 4482,
        "meta_bstar": 0,
        "meta_mean_motion_dot": -1.75e-06,
        "meta_mean_motion_ddot": 0,
        "tle_line1": "1 35493U 09034A   25351.53822214 -.00000175  00000+0  00000+0 0  9995",
        "tle_line2": "2 35493   0.0190 293.2593 0000825 214.9962  45.7750  1.00270579 44824"
      },
      "geometry": {
        "type": "Point",
        "coordinates": [
          -34.44448712838437,
          0.006697950940653568
        ]
      }
    },
    {
      "type": "Feature",
      "properties": {
        "norad_id": 36097,
        "name": "INTELSAT 14 (IS-14)",
        "group": "intelsat",
        "lat": 0.0213918461097912,
        "lon": 6.740446069863385,
        "alt_km": 35786.23191412701,
        "timestamp": "2025-12-17T21:39:45.376270+00:00",
        "meta_object_name": "INTELSAT 14 (IS-14)",
        "meta_object_id": "2009-064A",
        "meta_epoch": "2025-12-17T09:41:14.408736",
        "meta_mean_motion": 1.00272181,
        "meta_eccentricity": 0.00024378,
        "meta_inclination": 0.0122,
        "meta_ra_of_asc_node": 320.5226,
        "meta_arg_of_pericenter": 315.1724,
        "meta_mean_anomaly": 270.908,
        "meta_ephemeris_type": 0,
        "meta_classification_type": "U",
        "meta_norad_cat_id": 36097,
        "meta_element_set_no": 999,
        "meta_rev_at_epoch": 5878,
        "meta_bstar": 0,
        "meta_mean_motion_dot": -2.49e-06,
        "meta_mean_motion_ddot": 0,
        "tle_line1": "1 36097U 09064A   25351.40363899 -.00000249  00000+0  00000+0 0  9996",
        "tle_line2": "2 36097   0.0122 320.5226 0002437 315.1724 270.9080  1.00272181 58787"
      },
      "geometry": {
        "type": "Point",
        "coordinates": [
          6.740446069863385,
          0.0213918461097912
        ]
      }
    },
    {
      "type": "Feature",
      "properties": {
        "norad_id": 36106,
        "name": "INTELSAT 15 (IS-15)",
        "group": "intelsat",
        "lat": 0.019334901835542904,
        "lon": 136.83901491846402,
        "alt_km": 35793.25735599839,
        "timestamp": "2025-12-17T21:39:45.376281+00:00",
        "meta_object_name": "INTELSAT 15 (IS-15)",
        "meta_object_id": "2009-067A",
        "meta_epoch": "2025-12-17T13:43:50.220192",
        "meta_mean_motion": 1.00271611,
        "meta_eccentricity": 0.00021676,
        "meta_inclination": 0.0171,
        "meta_ra_of_asc_node": 343.1214,
        "meta_arg_of_pericenter": 294.639,
        "meta_mean_anomaly": 99.8011,
        "meta_ephemeris_type": 0,
        "meta_classification_type": "U",
        "meta_norad_cat_id": 36106,
        "meta_element_set_no": 999,
        "meta_rev_at_epoch": 3940,
        "meta_bstar": 0,
        "meta_mean_motion_dot": -1.6e-06,
        "meta_mean_motion_ddot": 0,
        "tle_line1": "1 36106U 09067A   25351.57210903 -.00000160  00000+0  00000+0 0  9997",
        "tle_line2": "2 36106   0.0171 343.1214 0002167 294.6390  99.8011  1.00271611 39407"
      },
      "geometry": {
        "type": "Point",
        "coordinates": [
          136.83901491846402,
          0.019334901835542904
        ]
      }
    },
    {
      "type": "Feature",
      "properties": {
        "norad_id": 36131,
        "name": "DIRECTV 12",
        "group": "intelsat",
        "lat": -0.02071130786173221,
        "lon": -51.01369267893471,
        "alt_km": 35784.123323666965,
        "timestamp": "2025-12-17T21:39:45.376292+00:00",
        "meta_object_name": "DIRECTV 12",
        "meta_object_id": "2009-075A",
        "meta_epoch": "2025-12-17T12:02:07.721664",
        "meta_mean_motion": 1.00273321,
        "meta_eccentricity": 4.896e-05,
        "meta_inclination": 0.0482,
        "meta_ra_of_asc_node": 155.1358,
        "meta_arg_of_pericenter": 195.2953,
        "meta_mean_anomaly": 173.7663,
        "meta_ephemeris_type": 0,
        "meta_classification_type": "U",
        "meta_norad_cat_id": 36131,
        "meta_element_set_no": 999,
        "meta_rev_at_epoch": 4473,
        "meta_bstar": 0,
        "meta_mean_motion_dot": -7.9e-07,
        "meta_mean_motion_ddot": 0,
        "tle_line1": "1 36131U 09075A   25351.50147826 -.00000079  00000+0  00000+0 0  9999",
        "tle_line2": "2 36131   0.0482 155.1358 0000489 195.2953 173.7663  1.00273321 44733"
      },
      "geometry": {
        "type": "Point",
        "coordinates": [
          -51.01369267893471,
          -0.02071130786173221
        ]
      }
    },
    {
      "type": "Feature",
      "properties": {
        "norad_id": 36397,
        "name": "INTELSAT 16 (IS-16)",
        "group": "intelsat",
        "lat": -0.009517561266503377,
        "lon": -24.475096436201653,
        "alt_km": 35783.15830965613,
        "timestamp": "2025-12-17T21:39:45.376302+00:00",
        "meta_object_name": "INTELSAT 16 (IS-16)",
        "meta_object_id": "2010-006A",
        "meta_epoch": "2025-12-17T12:57:47.130048",
        "meta_mean_motion": 1.00272497,
        "meta_eccentricity": 0.00018317,
        "meta_inclination": 0.0098,
        "meta_ra_of_asc_node": 356.6253,
        "meta_arg_of_pericenter": 269.7654,
        "meta_mean_anomaly": 298.2757,
        "meta_ephemeris_type": 0,
        "meta_classification_type": "U",
        "meta_norad_cat_id": 36397,
        "meta_element_set_no": 999,
        "meta_rev_at_epoch": 5783,
        "meta_bstar": 0,
        "meta_mean_motion_dot": -2.2e-06,
        "meta_mean_motion_ddot": 0,
        "tle_line1": "1 36397U 10006A   25351.54012882 -.00000220  00000+0  00000+0 0  9994",
        "tle_line2": "2 36397   0.0098 356.6253 0001831 269.7654 298.2757  1.00272497 57834"
      },
      "geometry": {
        "type": "Point",
        "coordinates": [
          -24.475096436201653,
          -0.009517561266503377
        ]
      }
    },
    {
      "type": "Feature",
      "properties": {
        "norad_id": 37185,
        "name": "XM-5",
        "group": "intelsat",
        "lat": 0.008228642984186593,
        "lon": -63.4859224492104,
        "alt_km": 35793.369971203516,
        "timestamp": "2025-12-17T21:39:45.376313+00:00",
        "meta_object_name": "XM-5",
        "meta_object_id": "2010-053A",
        "meta_epoch": "2025-12-17T14:05:26.297088",
        "meta_mean_motion": 1.00270586,
        "meta_eccentricity": 0.000184,
        "meta_inclination": 0.0634,
        "meta_ra_of_asc_node": 272.4688,
        "meta_arg_of_pericenter": 230.1399,
        "meta_mean_anomaly": 40.0192,
        "meta_ephemeris_type": 0,
        "meta_classification_type": "U",
        "meta_norad_cat_id": 37185,
        "meta_element_set_no": 999,
        "meta_rev_at_epoch": 5566,
        "meta_bstar": 0,
        "meta_mean_motion_dot": 2e-08,
        "meta_mean_motion_ddot": 0,
        "tle_line1": "1 37185U 10053A   25351.58710992  .00000002  00000+0  00000+0 0  9990",
        "tle_line2": "2 37185   0.0634 272.4688 0001840 230.1399  40.0192  1.00270586 55663"
      },
      "geometry": {
        "type": "Point",
        "coordinates": [
          -63.4859224492104,
          0.008228642984186593
        ]
      }
    }
  ]
}